{"type": "FeatureCollection", "features": [ {"type": "Feature", "properties": {"norad_id": 17070, "name": "POLAR BEAR", "group": "nnss", "lat": -53.132884884321605, "lon": -176.62292542569764, "alt_km": 1017.857886886789, "timestamp": "2025-12-09T21:34:11.676402+00:00", "meta": {"OBJECT_NAME": "POLAR BEAR", "OBJECT_ID": "1986-088A", "EPOCH": "2025-12-09T11:40:55.884288", "MEAN_MOTION": 13.75249895, "ECCENTRICITY": 0.00407734, "INCLINATION": 89.6176, "RA_OF_ASC_NODE": 183.9039, "ARG_OF_PERICENTER": 128.6786, "MEAN_ANOMALY": 299.7884, "EPHEMERIS_TYPE": 0, "CLASSIFICATION_TYPE": "U", "NORAD_CAT_ID": 17070, "ELEMENT_SET_NO": 999, "REV_AT_EPOCH": 95934, "BSTAR": 0.00016163387, "MEAN_MOTION_DOT": 1.67e-06, "MEAN_MOTION_DDOT": 0}, "tle": {"line1": "1 17070U 86088A   25343.48675792  .00000167  00000+0  16163-3 0  9993", "line2": "2 17070  89.6176 183.9039 0040773 128.6786 299.7884 13.75249895959346"}}, "geometry": {"type": "Point", "coordinates": [-176.62292542569764, -53.132884884321605]}}, {"type": "Feature", "properties": {"norad_id": 18361, "name": "OSCAR 27", "group": "nnss", "lat": 26.761701246700188, "lon": -100.64509584974523, "alt_km": 1074.5145269054638, "timestamp": "2025-12-09T21:34:11.676413+00:00", "meta": {"OBJECT_NAME": "OSCAR 27", "OBJECT_ID": "1987-080A", "EPOCH": "2025-12-09T13:39:29.711232", "MEAN_MOTION": 13.4490578, "ECCENTRICITY": 0.01026828, "INCLINATION": 90.3743, "RA_OF_ASC_NODE": 79.1537, "ARG_OF_PERICENTER": 232.9829, "MEAN_ANOMALY": 126.1891, "EPHEMERIS_TYPE": 0, "CLASSIFICATION_TYPE": "U", "NORAD_CAT_ID": 18361, "ELEMENT_SET_NO": 999, "REV_AT_EPOCH": 87514, "BSTAR": 0.00029987853, "MEAN_MOTION_DOT": 1.89e-06, "MEAN_MOTION_DDOT": 0}, "tle": {"line1": "1 18361U 87080A   25343.56909388  .00000189  00000+0  29988-3 0  9993", "line2": "2 18361  90.3743  79.1537 0102682 232.9829 126.1891 13.44905780875147"}}, "geometry": {"type": "Point", "coordinates": [-100.64509584974523, 26.761701246700188]}}, {"type": "Feature", "properties": {"norad_id": 18362, "name": "OSCAR 29", "group": "nnss", "lat": 9.905723090287564, "lon": -100.30970062390251, "alt_km": 1087.3800009194147, "timestamp": "2025-12-09T21:34:11.676423+00:00", "meta": {"OBJECT_NAME": "OSCAR 29", "OBJECT_ID": "1987-080B", "EPOCH": "2025-12-09T13:37:43.650048", "MEAN_MOTION": 13.4444762, "ECCENTRICITY": 0.01037853, "INCLINATION": 90.3754, "RA_OF_ASC_NODE": 79.6123, "ARG_OF_PERICENTER": 256.3819, "MEAN_ANOMALY": 114.2703, "EPHEMERIS_TYPE": 0, "CLASSIFICATION_TYPE": "U", "NORAD_CAT_ID": 18362, "ELEMENT_SET_NO": 999, "REV_AT_EPOCH": 87467, "BSTAR": 0.00027685548, "MEAN_MOTION_DOT": 1.74e-06, "MEAN_MOTION_DDOT": 0}, "tle": {"line1": "1 18362U 87080B   25343.56786632  .00000174  00000+0  27686-3 0  9996", "line2": "2 18362  90.3754  79.6123 0103785 256.3819 114.2703 13.44447620874671"}}, "geometry": {"type": "Point", "coordinates": [-100.30970062390251, 9.905723090287564]}}, {"type": "Feature", "properties": {"norad_id": 19070, "name": "OSCAR 23", "group": "nnss", "lat": 65.31437226931699, "lon": -162.99547411901648, "alt_km": 1105.1294942037757, "timestamp": "2025-12-09T21:34:11.676434+00:00", "meta": {"OBJECT_NAME": "OSCAR 23", "OBJECT_ID": "1988-033A", "EPOCH": "2025-12-09T12:36:56.310336", "MEAN_MOTION": 13.27786505, "ECCENTRICITY": 0.01892617, "INCLINATION": 90.3215, "RA_OF_ASC_NODE": 16.293, "ARG_OF_PERICENTER": 188.8642, "MEAN_ANOMALY": 305.478, "EPHEMERIS_TYPE": 0, "CLASSIFICATION_TYPE": "U", "NORAD_CAT_ID": 19070, "ELEMENT_SET_NO": 999, "REV_AT_EPOCH": 82210, "BSTAR": 0.00020441759, "MEAN_MOTION_DOT": 1.1e-06, "MEAN_MOTION_DDOT": 0}, "tle": {"line1": "1 19070U 88033A   25343.52565174  .00000110  00000+0  20442-3 0  9997", "line2": "2 19070  90.3215  16.2930 0189261 188.8642 305.4780 13.27786505822108"}}, "geometry": {"type": "Point", "coordinates": [-162.99547411901648, 65.31437226931699]}}, {"type": "Feature", "properties": {"norad_id": 19071, "name": "OSCAR 32", "group": "nnss", "lat": -47.09068664239918, "lon": -163.91011965306313, "alt_km": 1073.0725466553104, "timestamp": "2025-12-09T21:34:11.676445+00:00", "meta": {"OBJECT_NAME": "OSCAR 32", "OBJECT_ID": "1988-033B", "EPOCH": "2025-12-09T12:03:27.412704", "MEAN_MOTION": 13.2795343, "ECCENTRICITY": 0.0188095, "INCLINATION": 90.322, "RA_OF_ASC_NODE": 16.4241, "ARG_OF_PERICENTER": 175.7825, "MEAN_ANOMALY": 315.8544, "EPHEMERIS_TYPE": 0, "CLASSIFICATION_TYPE": "U", "NORAD_CAT_ID": 19071, "ELEMENT_SET_NO": 999, "REV_AT_EPOCH": 82222, "BSTAR": 0.00020819121, "MEAN_MOTION_DOT": 1.12e-06, "MEAN_MOTION_DDOT": 0}, "tle": {"line1": "1 19071U 88033B   25343.50240061  .00000112  00000+0  20819-3 0  9991", "line2": "2 19071  90.3220  16.4241 0188095 175.7825 315.8544 13.27953430822223"}}, "geometry": {"type": "Point", "coordinates": [-163.91011965306313, -47.09068664239918]}}, {"type": "Feature", "properties": {"norad_id": 19223, "name": "NOVA 2", "group": "nnss", "lat": 65.8093250319909, "lon": -101.75282873958803, "alt_km": 1166.9435010420475, "timestamp": "2025-12-09T21:34:11.676455+00:00", "meta": {"OBJECT_NAME": "NOVA 2", "OBJECT_ID": "1988-052A", "EPOCH": "2025-12-09T11:58:35.893056", "MEAN_MOTION": 13.22935434, "ECCENTRICITY": 0.00308605, "INCLINATION": 89.9871, "RA_OF_ASC_NODE": 78.2764, "ARG_OF_PERICENTER": 25.6927, "MEAN_ANOMALY": 345.5119, "EPHEMERIS_TYPE": 0, "CLASSIFICATION_TYPE": "U", "NORAD_CAT_ID": 19223, "ELEMENT_SET_NO": 999, "REV_AT_EPOCH": 80905, "BSTAR": 0.00022127001, "MEAN_MOTION_DOT": 1.02e-06, "MEAN_MOTION_DDOT": 0}, "tle": {"line1": "1 19223U 88052A   25343.49902654  .00000102  00000+0  22127-3 0  9995", "line2": "2 19223  89.9871  78.2764 0030860  25.6927 345.5119 13.22935434809059"}}, "geometry": {"type": "Point", "coordinates": [-101.75282873958803, 65.8093250319909]}}, {"type": "Feature", "properties": {"norad_id": 19419, "name": "OSCAR 25", "group": "nnss", "lat": -10.127923317400167, "lon": 20.24111288204838, "alt_km": 1110.263448971994, "timestamp": "2025-12-09T21:34:11.676490+00:00", "meta": {"OBJECT_NAME": "OSCAR 25", "OBJECT_ID": "1988-074A", "EPOCH": "2025-12-09T13:27:06.963264", "MEAN_MOTION": 13.42622529, "ECCENTRICITY": 0.00943274, "INCLINATION": 90.0349, "RA_OF_ASC_NODE": 20.2337, "ARG_OF_PERICENTER": 255.0703, "MEAN_ANOMALY": 259.8994, "EPHEMERIS_TYPE": 0, "CLASSIFICATION_TYPE": "U", "NORAD_CAT_ID": 19419, "ELEMENT_SET_NO": 999, "REV_AT_EPOCH": 82597, "BSTAR": 0.00023781849, "MEAN_MOTION_DOT": 1.46e-06, "MEAN_MOTION_DDOT": 0}, "tle": {"line1": "1 19419U 88074A   25343.56049726  .00000146  00000+0  23782-3 0  9992", "line2": "2 19419  90.0349  20.2337 0094327 255.0703 259.8994 13.42622529825978"}}, "geometry": {"type": "Point", "coordinates": [20.24111288204838, -10.127923317400167]}}, {"type": "Feature", "properties": {"norad_id": 19420, "name": "OSCAR 31", "group": "nnss", "lat": -52.871141980660674, "lon": -159.46406305085878, "alt_km": 1039.895850660656, "timestamp": "2025-12-09T21:34:11.676501+00:00", "meta": {"OBJECT_NAME": "OSCAR 31", "OBJECT_ID": "1988-074B", "EPOCH": "2025-12-09T12:06:07.808256", "MEAN_MOTION": 13.42583896, "ECCENTRICITY": 0.00926038, "INCLINATION": 90.0367, "RA_OF_ASC_NODE": 20.583, "ARG_OF_PERICENTER": 249.3335, "MEAN_ANOMALY": 238.1831, "EPHEMERIS_TYPE": 0, "CLASSIFICATION_TYPE": "U", "NORAD_CAT_ID": 19420, "ELEMENT_SET_NO": 999, "REV_AT_EPOCH": 82607, "BSTAR": 0.00020450542, "MEAN_MOTION_DOT": 1.27e-06, "MEAN_MOTION_DDOT": 0}, "tle": {"line1": "1 19420U 88074B   25343.50425704  .00000127  00000+0  20451-3 0  9991", "line2": "2 19420  90.0367  20.5830 0092603 249.3335 238.1831 13.42583896826078"}}, "geometry": {"type": "Point", "coordinates": [-159.46406305085878, -52.871141980660674]}}]}